{
  "type": "FeatureCollection",
  "name": "pasar_tani",
  "features": [
    {
      "type": "Feature",
      "geometry": {
        "type": "Point",
        "coordinates": [
          101.644054,
          2.9363257
        ]
      },
      "properties": {
        "name": "Pasar Tani Taman Tasik Cyberjaya",
        "category": "pasar_tani",
        "category_label": "Pasar Tani",
        "brand": "Pasar Tani",
        "address": "",
        "DUN": "N.55 DENGKIL",
        "PDM": "113/55/20  CYBERJAYA",
        "source": "OpenStreetMap",
        "source_id": "way/1417656469",
        "source_url": "https://www.openstreetmap.org/way/1417656469",
        "verification_status": "Mapped record; field verification recommended",
        "retrieved_on": "2026-08-03"
      }
    },
    {
      "type": "Feature",
      "geometry": {
        "type": "Point",
        "coordinates": [
          101.6807886,
          2.8554837
        ]
      },
      "properties": {
        "name": "Pasar Tani Dengkil",
        "category": "pasar_tani",
        "category_label": "Pasar Tani",
        "brand": "",
        "address": "",
        "DUN": "N.55 DENGKIL",
        "PDM": "113/55/21  SELANGOR DREDGING",
        "source": "Official listing + OpenStreetMap venue",
        "source_id": "curated-market",
        "source_url": "https://www.mpsepang.gov.my/pasar/",
        "verification_status": "Official/local listing; venue coordinate mapped as Pasar Dengkil",
        "retrieved_on": "2026-08-03"
      }
    }
  ]
}