{
"type": "FeatureCollection",
"name": "polling_centres",
"crs": { "type": "name", "properties": { "name": "urn:ogc:def:crs:OGC:1.3:CRS84" } },
"features": [
{ "type": "Feature", "properties": { "Name": "Bukit Bangkung", "description": "No.: 1<br>Kod Pusat Mengundi: 113/54/01<br>Nama DUN: Tanjung Sepat<br>Pusat Mengundi: SRA Kampung Bukit Bangkong<br>Latitude: 2.66055<br>Longitude: 101.67341", "timestamp": null, "begin": null, "end": null, "altitudeMode": null, "tessellate": -1, "extrude": 0, "visibility": -1, "drawOrder": null, "icon": null, "COL5DBA37F9C3FEDAED": "1.0", "COL5DBA37F9C3B37C95": "113/54/01", "COL5DBA37F9C3B5E237": "Tanjung Sepat", "COL5DBA37F9C355D61B": "SRA Kampung Bukit Bangkong", "COL5DBA37F9C3F9FB4F": "2.66055", "COL5DBA37F9C3D1A0B3": "101.67341" }, "geometry": { "type": "Point", "coordinates": [ 101.67341, 2.66055, 0.0 ] } },
{ "type": "Feature", "properties": { "Name": "Sungai Rawang", "description": "No.: 2<br>Kod Pusat Mengundi: 113/54/02<br>Nama DUN: Tanjung Sepat<br>Pusat Mengundi: SK Sungai Rawang<br>Latitude: 2.66355<br>Longitude: 101.672531", "timestamp": null, "begin": null, "end": null, "altitudeMode": null, "tessellate": -1, "extrude": 0, "visibility": -1, "drawOrder": null, "icon": null, "COL5DBA37F9C3FEDAED": "2.0", "COL5DBA37F9C3B37C95": "113/54/02", "COL5DBA37F9C3B5E237": "Tanjung Sepat", "COL5DBA37F9C355D61B": "SK Sungai Rawang", "COL5DBA37F9C3F9FB4F": "2.66355", "COL5DBA37F9C3D1A0B3": "101.672531" }, "geometry": { "type": "Point", "coordinates": [ 101.672531, 2.66355, 0.0 ] } },
{ "type": "Feature", "properties": { "Name": "Tanjong Rhu", "description": "No.: 3<br>Kod Pusat Mengundi: 113/54/03<br>Nama DUN: Tanjung Sepat<br>Pusat Mengundi: SJK(T) Teluk Merbau<br>Latitude: 2.642918<br>Longitude: 101.660631", "timestamp": null, "begin": null, "end": null, "altitudeMode": null, "tessellate": -1, "extrude": 0, "visibility": -1, "drawOrder": null, "icon": null, "COL5DBA37F9C3FEDAED": "3.0", "COL5DBA37F9C3B37C95": "113/54/03", "COL5DBA37F9C3B5E237": "Tanjung Sepat", "COL5DBA37F9C355D61B": "SJK(T) Teluk Merbau", "COL5DBA37F9C3F9FB4F": "2.642918", "COL5DBA37F9C3D1A0B3": "101.660631" }, "geometry": { "type": "Point", "coordinates": [ 101.660631, 2.642918, 0.0 ] } },
{ "type": "Feature", "properties": { "Name": "Tanjong Sepat Tempatan 1", "description": "No.: 4<br>Kod Pusat Mengundi: 113/54/04<br>Nama DUN: Tanjung Sepat<br>Pusat Mengundi: SJK(C) Tanjong Sepat<br>Latitude: 2.661492<br>Longitude: 101.557401", "timestamp": null, "begin": null, "end": null, "altitudeMode": null, "tessellate": -1, "extrude": 0, "visibility": -1, "drawOrder": null, "icon": null, "COL5DBA37F9C3FEDAED": "4.0", "COL5DBA37F9C3B37C95": "113/54/04", "COL5DBA37F9C3B5E237": "Tanjung Sepat", "COL5DBA37F9C355D61B": "SJK(C) Tanjong Sepat", "COL5DBA37F9C3F9FB4F": "2.661492", "COL5DBA37F9C3D1A0B3": "101.557401" }, "geometry": { "type": "Point", "coordinates": [ 101.557401, 2.661492, 0.0 ] } },
{ "type": "Feature", "properties": { "Name": "Tanjong Sepat Tempatan 2", "description": "No.: 5<br>Kod Pusat Mengundi: 113/54/05<br>Nama DUN: Tanjung Sepat<br>Pusat Mengundi: SMK Tanjung Sepat<br>Latitude: 2.656872<br>Longitude: 101.566474", "timestamp": null, "begin": null, "end": null, "altitudeMode": null, "tessellate": -1, "extrude": 0, "visibility": -1, "drawOrder": null, "icon": null, "COL5DBA37F9C3FEDAED": "5.0", "COL5DBA37F9C3B37C95": "113/54/05", "COL5DBA37F9C3B5E237": "Tanjung Sepat", "COL5DBA37F9C355D61B": "SMK Tanjung Sepat", "COL5DBA37F9C3F9FB4F": "2.656872", "COL5DBA37F9C3D1A0B3": "101.566474" }, "geometry": { "type": "Point", "coordinates": [ 101.566474, 2.656872, 0.0 ] } },
{ "type": "Feature", "properties": { "Name": "Tanjong Sepat Tempatan 3", "description": "No.: 6<br>Kod Pusat Mengundi: 113/53/06<br>Nama DUN: Tanjung Sepat<br>Pusat Mengundi: SJK(C) Tanjong Sepat<br>Latitude: 2.661492<br>Longitude: 101.557401", "timestamp": null, "begin": null, "end": null, "altitudeMode": null, "tessellate": -1, "extrude": 0, "visibility": -1, "drawOrder": null, "icon": null, "COL5DBA37F9C3FEDAED": "6.0", "COL5DBA37F9C3B37C95": "113/53/06", "COL5DBA37F9C3B5E237": "Tanjung Sepat", "COL5DBA37F9C355D61B": "SJK(C) Tanjong Sepat", "COL5DBA37F9C3F9FB4F": "2.661492", "COL5DBA37F9C3D1A0B3": "101.557401" }, "geometry": { "type": "Point", "coordinates": [ 101.557401, 2.661492, 0.0 ] } },
{ "type": "Feature", "properties": { "Name": "Tanjong Sepat Tempatan 4", "description": "No.: 7<br>Kod Pusat Mengundi: 113/54/07<br>Nama DUN: Tanjung Sepat<br>Pusat Mengundi: SJK(C) Tanjong Sepat<br>Latitude: 2.661492<br>Longitude: 101.557401", "timestamp": null, "begin": null, "end": null, "altitudeMode": null, "tessellate": -1, "extrude": 0, "visibility": -1, "drawOrder": null, "icon": null, "COL5DBA37F9C3FEDAED": "7.0", "COL5DBA37F9C3B37C95": "113/54/07", "COL5DBA37F9C3B5E237": "Tanjung Sepat", "COL5DBA37F9C355D61B": "SJK(C) Tanjong Sepat", "COL5DBA37F9C3F9FB4F": "2.661492", "COL5DBA37F9C3D1A0B3": "101.557401" }, "geometry": { "type": "Point", "coordinates": [ 101.557401, 2.661492, 0.0 ] } },
{ "type": "Feature", "properties": { "Name": "Tanjong Sepat Tempatan 5", "description": "No.: 8<br>Kod Pusat Mengundi: 113/54/08<br>Nama DUN: Tanjung Sepat<br>Pusat Mengundi: SJK(C) Tanjong Sepat<br>Latitude: 2.661492<br>Longitude: 101.557401", "timestamp": null, "begin": null, "end": null, "altitudeMode": null, "tessellate": -1, "extrude": 0, "visibility": -1, "drawOrder": null, "icon": null, "COL5DBA37F9C3FEDAED": "8.0", "COL5DBA37F9C3B37C95": "113/54/08", "COL5DBA37F9C3B5E237": "Tanjung Sepat", "COL5DBA37F9C355D61B": "SJK(C) Tanjong Sepat", "COL5DBA37F9C3F9FB4F": "2.661492", "COL5DBA37F9C3D1A0B3": "101.557401" }, "geometry": { "type": "Point", "coordinates": [ 101.557401, 2.661492, 0.0 ] } },
{ "type": "Feature", "properties": { "Name": "Tanjong Sepat 6", "description": "No.: 9<br>Kod Pusat Mengundi: 113/54/09<br>Nama DUN: Tanjung Sepat<br>Pusat Mengundi: SK Tanjung Sepat<br>Latitude: 2.674248078<br>Longitude: 101.555536", "timestamp": null, "begin": null, "end": null, "altitudeMode": null, "tessellate": -1, "extrude": 0, "visibility": -1, "drawOrder": null, "icon": null, "COL5DBA37F9C3FEDAED": "9.0", "COL5DBA37F9C3B37C95": "113/54/09", "COL5DBA37F9C3B5E237": "Tanjung Sepat", "COL5DBA37F9C355D61B": "SK Tanjung Sepat", "COL5DBA37F9C3F9FB4F": "2.674248078", "COL5DBA37F9C3D1A0B3": "101.555536" }, "geometry": { "type": "Point", "coordinates": [ 101.555536, 2.674248078, 0.0 ] } },
{ "type": "Feature", "properties": { "Name": "Kundang", "description": "No.: 10<br>Kod Pusat Mengundi: 113/54/10<br>Nama DUN: Tanjung Sepat<br>Pusat Mengundi: SRA Kampung Kundang<br>Latitude: 2.680695556<br>Longitude: 101.5355942", "timestamp": null, "begin": null, "end": null, "altitudeMode": null, "tessellate": -1, "extrude": 0, "visibility": -1, "drawOrder": null, "icon": null, "COL5DBA37F9C3FEDAED": "10.0", "COL5DBA37F9C3B37C95": "113/54/10", "COL5DBA37F9C3B5E237": "Tanjung Sepat", "COL5DBA37F9C355D61B": "SRA Kampung Kundang", "COL5DBA37F9C3F9FB4F": "2.680695556", "COL5DBA37F9C3D1A0B3": "101.5355942" }, "geometry": { "type": "Point", "coordinates": [ 101.5355942, 2.680695556, 0.0 ] } },
{ "type": "Feature", "properties": { "Name": "Batu Laut", "description": "No.: 11<br>Kod Pusat Mengundi: 113/54/11<br>Nama DUN: Tanjung Sepat<br>Pusat Mengundi: SK Batu Laut<br>Latitude: 2.676688<br>Longitude: 101.514801", "timestamp": null, "begin": null, "end": null, "altitudeMode": null, "tessellate": -1, "extrude": 0, "visibility": -1, "drawOrder": null, "icon": null, "COL5DBA37F9C3FEDAED": "11.0", "COL5DBA37F9C3B37C95": "113/54/11", "COL5DBA37F9C3B5E237": "Tanjung Sepat", "COL5DBA37F9C355D61B": "SK Batu Laut", "COL5DBA37F9C3F9FB4F": "2.676688", "COL5DBA37F9C3D1A0B3": "101.514801" }, "geometry": { "type": "Point", "coordinates": [ 101.514801, 2.676688, 0.0 ] } },
{ "type": "Feature", "properties": { "Name": "Kampung Endah", "description": "No.: 12<br>Kod Pusat Mengundi: 113/54/12<br>Nama DUN: Tanjung Sepat<br>Pusat Mengundi: SK Kampung Endah<br>Latitude: 2.734223<br>Longitude: 101.46986", "timestamp": null, "begin": null, "end": null, "altitudeMode": null, "tessellate": -1, "extrude": 0, "visibility": -1, "drawOrder": null, "icon": null, "COL5DBA37F9C3FEDAED": "12.0", "COL5DBA37F9C3B37C95": "113/54/12", "COL5DBA37F9C3B5E237": "Tanjung Sepat", "COL5DBA37F9C355D61B": "SK Kampung Endah", "COL5DBA37F9C3F9FB4F": "2.734223", "COL5DBA37F9C3D1A0B3": "101.46986" }, "geometry": { "type": "Point", "coordinates": [ 101.46986, 2.734223, 0.0 ] } },
{ "type": "Feature", "properties": { "Name": "Sungai Lang", "description": "No.: 13<br>Kod Pusat Mengundi: 113/54/13<br>Nama DUN: Tanjung Sepat<br>Pusat Mengundi: SK Sungai Lang<br>Latitude: 2.790238<br>Longitude: 101.520348", "timestamp": null, "begin": null, "end": null, "altitudeMode": null, "tessellate": -1, "extrude": 0, "visibility": -1, "drawOrder": null, "icon": null, "COL5DBA37F9C3FEDAED": "13.0", "COL5DBA37F9C3B37C95": "113/54/13", "COL5DBA37F9C3B5E237": "Tanjung Sepat", "COL5DBA37F9C355D61B": "SK Sungai Lang", "COL5DBA37F9C3F9FB4F": "2.790238", "COL5DBA37F9C3D1A0B3": "101.520348" }, "geometry": { "type": "Point", "coordinates": [ 101.520348, 2.790238, 0.0 ] } },
{ "type": "Feature", "properties": { "Name": "Sungai Kelambu", "description": "No.: 14<br>Kod Pusat Mengundi: 113/54/14<br>Nama DUN: Tanjung Sepat<br>Pusat Mengundi: SK Sungai Kelambu<br>Latitude: 2.787375<br>Longitude: 101.552101", "timestamp": null, "begin": null, "end": null, "altitudeMode": null, "tessellate": -1, "extrude": 0, "visibility": -1, "drawOrder": null, "icon": null, "COL5DBA37F9C3FEDAED": "14.0", "COL5DBA37F9C3B37C95": "113/54/14", "COL5DBA37F9C3B5E237": "Tanjung Sepat", "COL5DBA37F9C355D61B": "SK Sungai Kelambu", "COL5DBA37F9C3F9FB4F": "2.787375", "COL5DBA37F9C3D1A0B3": "101.552101" }, "geometry": { "type": "Point", "coordinates": [ 101.552101, 2.787375, 0.0 ] } },
{ "type": "Feature", "properties": { "Name": "Sungai Lempit", "description": "No.: 15<br>Kod Pusat Mengundi: 113/55/01<br>Nama DUN: Dengkil<br>Pusat Mengundi: SK Olak Lempit<br>Latitude: 2.835472<br>Longitude: 101.587744", "timestamp": null, "begin": null, "end": null, "altitudeMode": null, "tessellate": -1, "extrude": 0, "visibility": -1, "drawOrder": null, "icon": null, "COL5DBA37F9C3FEDAED": "15.0", "COL5DBA37F9C3B37C95": "113/55/01", "COL5DBA37F9C3B5E237": "Dengkil", "COL5DBA37F9C355D61B": "SK Olak Lempit", "COL5DBA37F9C3F9FB4F": "2.835472", "COL5DBA37F9C3D1A0B3": "101.587744" }, "geometry": { "type": "Point", "coordinates": [ 101.587744, 2.835472, 0.0 ] } },
{ "type": "Feature", "properties": { "Name": "Bukit Changgang", "description": "No.: 16<br>Kod Pusat Mengundi: 113/55/02<br>Nama DUN: Dengkil<br>Pusat Mengundi: SK Bukit Changgang<br>Latitude: 2.832<br>Longitude: 101.62756", "timestamp": null, "begin": null, "end": null, "altitudeMode": null, "tessellate": -1, "extrude": 0, "visibility": -1, "drawOrder": null, "icon": null, "COL5DBA37F9C3FEDAED": "16.0", "COL5DBA37F9C3B37C95": "113/55/02", "COL5DBA37F9C3B5E237": "Dengkil", "COL5DBA37F9C355D61B": "SK Bukit Changgang", "COL5DBA37F9C3F9FB4F": "2.832", "COL5DBA37F9C3D1A0B3": "101.62756" }, "geometry": { "type": "Point", "coordinates": [ 101.62756, 2.832, 0.0 ] } },
{ "type": "Feature", "properties": { "Name": "Labohan Dagang", "description": "No.: 17<br>Kod Pusat Mengundi: 113/55/03<br>Nama DUN: Dengkil<br>Pusat Mengundi: SK Labohan Dagang<br>Latitude: 2.805832<br>Longitude: 101.613638", "timestamp": null, "begin": null, "end": null, "altitudeMode": null, "tessellate": -1, "extrude": 0, "visibility": -1, "drawOrder": null, "icon": null, "COL5DBA37F9C3FEDAED": "17.0", "COL5DBA37F9C3B37C95": "113/55/03", "COL5DBA37F9C3B5E237": "Dengkil", "COL5DBA37F9C355D61B": "SK Labohan Dagang", "COL5DBA37F9C3F9FB4F": "2.805832", "COL5DBA37F9C3D1A0B3": "101.613638" }, "geometry": { "type": "Point", "coordinates": [ 101.613638, 2.805832, 0.0 ] } },
{ "type": "Feature", "properties": { "Name": "Ampar Tenang", "description": "No.: 18<br>Kod Pusat Mengundi: 113/55/04<br>Nama DUN: Dengkil<br>Pusat Mengundi: SRA Dengkil<br>Latitude: 2.85889<br>Longitude: 101.6779", "timestamp": null, "begin": null, "end": null, "altitudeMode": null, "tessellate": -1, "extrude": 0, "visibility": -1, "drawOrder": null, "icon": null, "COL5DBA37F9C3FEDAED": "18.0", "COL5DBA37F9C3B37C95": "113/55/04", "COL5DBA37F9C3B5E237": "Dengkil", "COL5DBA37F9C355D61B": "SRA Dengkil", "COL5DBA37F9C3F9FB4F": "2.85889", "COL5DBA37F9C3D1A0B3": "101.6779" }, "geometry": { "type": "Point", "coordinates": [ 101.6779, 2.85889, 0.0 ] } },
{ "type": "Feature", "properties": { "Name": "Kampung Baharu Dengkil", "description": "No.: 19<br>Kod Pusat Mengundi: 113/55/05<br>Nama DUN: Dengkil<br>Pusat Mengundi: SJK(C) Dengkil<br>Latitude: 2.859447<br>Longitude: 101.6779", "timestamp": null, "begin": null, "end": null, "altitudeMode": null, "tessellate": -1, "extrude": 0, "visibility": -1, "drawOrder": null, "icon": null, "COL5DBA37F9C3FEDAED": "19.0", "COL5DBA37F9C3B37C95": "113/55/05", "COL5DBA37F9C3B5E237": "Dengkil", "COL5DBA37F9C355D61B": "SJK(C) Dengkil", "COL5DBA37F9C3F9FB4F": "2.859447", "COL5DBA37F9C3D1A0B3": "101.6779" }, "geometry": { "type": "Point", "coordinates": [ 101.6779, 2.859447, 0.0 ] } },
{ "type": "Feature", "properties": { "Name": "Kampung Dengkil", "description": "No.: 20<br>Kod Pusat Mengundi: 113/55/06<br>Nama DUN: Dengkil<br>Pusat Mengundi: SK Dengkil<br>Latitude: 2.864152<br>Longitude: 101.674119", "timestamp": null, "begin": null, "end": null, "altitudeMode": null, "tessellate": -1, "extrude": 0, "visibility": -1, "drawOrder": null, "icon": null, "COL5DBA37F9C3FEDAED": "20.0", "COL5DBA37F9C3B37C95": "113/55/06", "COL5DBA37F9C3B5E237": "Dengkil", "COL5DBA37F9C355D61B": "SK Dengkil", "COL5DBA37F9C3F9FB4F": "2.864152", "COL5DBA37F9C3D1A0B3": "101.674119" }, "geometry": { "type": "Point", "coordinates": [ 101.674119, 2.864152, 0.0 ] } },
{ "type": "Feature", "properties": { "Name": "Pulau Meranti", "description": "No.: 21<br>Kod Pusat Mengundi: 113/55/07<br>Nama DUN: Dengkil<br>Pusat Mengundi: SK Pulau Meranti<br>Latitude: 2.965492<br>Longitude: 101.625617", "timestamp": null, "begin": null, "end": null, "altitudeMode": null, "tessellate": -1, "extrude": 0, "visibility": -1, "drawOrder": null, "icon": null, "COL5DBA37F9C3FEDAED": "21.0", "COL5DBA37F9C3B37C95": "113/55/07", "COL5DBA37F9C3B5E237": "Dengkil", "COL5DBA37F9C355D61B": "SK Pulau Meranti", "COL5DBA37F9C3F9FB4F": "2.965492", "COL5DBA37F9C3D1A0B3": "101.625617" }, "geometry": { "type": "Point", "coordinates": [ 101.625617, 2.965492, 0.0 ] } },
{ "type": "Feature", "properties": { "Name": "Sungai Merab Utara", "description": "No.: 22<br>Kod Pusat Mengundi: 113/55/08<br>Nama DUN: Dengkil<br>Pusat Mengundi: SRA Dato’ Abu Bakar Baginda<br>Latitude: 2.957818<br>Longitude: 101.730403", "timestamp": null, "begin": null, "end": null, "altitudeMode": null, "tessellate": -1, "extrude": 0, "visibility": -1, "drawOrder": null, "icon": null, "COL5DBA37F9C3FEDAED": "22.0", "COL5DBA37F9C3B37C95": "113/55/08", "COL5DBA37F9C3B5E237": "Dengkil", "COL5DBA37F9C355D61B": "SRA Dato’ Abu Bakar Baginda", "COL5DBA37F9C3F9FB4F": "2.957818", "COL5DBA37F9C3D1A0B3": "101.730403" }, "geometry": { "type": "Point", "coordinates": [ 101.730403, 2.957818, 0.0 ] } },
{ "type": "Feature", "properties": { "Name": "Kampung Dato Abu Bakar Baginda", "description": "No.: 23<br>Kod Pusat Mengundi: 113/55/09<br>Nama DUN: Dengkil<br>Pusat Mengundi: SK Dato’ Abu Bakar Baginda<br>Latitude: 2.957818<br>Longitude: 101.730403", "timestamp": null, "begin": null, "end": null, "altitudeMode": null, "tessellate": -1, "extrude": 0, "visibility": -1, "drawOrder": null, "icon": null, "COL5DBA37F9C3FEDAED": "23.0", "COL5DBA37F9C3B37C95": "113/55/09", "COL5DBA37F9C3B5E237": "Dengkil", "COL5DBA37F9C355D61B": "SK Dato’ Abu Bakar Baginda", "COL5DBA37F9C3F9FB4F": "2.957818", "COL5DBA37F9C3D1A0B3": "101.730403" }, "geometry": { "type": "Point", "coordinates": [ 101.730403, 2.957818, 0.0 ] } },
{ "type": "Feature", "properties": { "Name": "Sungai Merab", "description": "No.: 24<br>Kod Pusat Mengundi: 113/55/10<br>Nama DUN: Dengkil<br>Pusat Mengundi: SK Sungai Merab Luar<br>Latitude: 2.93713<br>Longitude: 101.75048", "timestamp": null, "begin": null, "end": null, "altitudeMode": null, "tessellate": -1, "extrude": 0, "visibility": -1, "drawOrder": null, "icon": null, "COL5DBA37F9C3FEDAED": "24.0", "COL5DBA37F9C3B37C95": "113/55/10", "COL5DBA37F9C3B5E237": "Dengkil", "COL5DBA37F9C355D61B": "SK Sungai Merab Luar", "COL5DBA37F9C3F9FB4F": "2.93713", "COL5DBA37F9C3D1A0B3": "101.75048" }, "geometry": { "type": "Point", "coordinates": [ 101.75048, 2.93713, 0.0 ] } },
{ "type": "Feature", "properties": { "Name": "Desa Putra", "description": "No.: 25<br>Kod Pusat Mengundi: 113/55/11<br>Nama DUN: Dengkil<br>Pusat Mengundi: SK Desa Putra<br>Latitude: 2.912692<br>Longitude: 101.729892", "timestamp": null, "begin": null, "end": null, "altitudeMode": null, "tessellate": -1, "extrude": 0, "visibility": -1, "drawOrder": null, "icon": null, "COL5DBA37F9C3FEDAED": "25.0", "COL5DBA37F9C3B37C95": "113/55/11", "COL5DBA37F9C3B5E237": "Dengkil", "COL5DBA37F9C355D61B": "SK Desa Putra", "COL5DBA37F9C3F9FB4F": "2.912692", "COL5DBA37F9C3D1A0B3": "101.729892" }, "geometry": { "type": "Point", "coordinates": [ 101.729892, 2.912692, 0.0 ] } },
{ "type": "Feature", "properties": { "Name": "Jenderam Hilir", "description": "No.: 26<br>Kod Pusat Mengundi: 113/55/12<br>Nama DUN: Dengkil<br>Pusat Mengundi: SK Jenderam Hilir<br>Latitude: 2.885564<br>Longitude: 101.722639", "timestamp": null, "begin": null, "end": null, "altitudeMode": null, "tessellate": -1, "extrude": 0, "visibility": -1, "drawOrder": null, "icon": null, "COL5DBA37F9C3FEDAED": "26.0", "COL5DBA37F9C3B37C95": "113/55/12", "COL5DBA37F9C3B5E237": "Dengkil", "COL5DBA37F9C355D61B": "SK Jenderam Hilir", "COL5DBA37F9C3F9FB4F": "2.885564", "COL5DBA37F9C3D1A0B3": "101.722639" }, "geometry": { "type": "Point", "coordinates": [ 101.722639, 2.885564, 0.0 ] } },
{ "type": "Feature", "properties": { "Name": "Sungai Buah", "description": "No.: 27<br>Kod Pusat Mengundi: 113/55/13<br>Nama DUN: Dengkil<br>Pusat Mengundi: SRA Sungai Buah<br>Latitude: 2.879821049<br>Longitude: 101.7644496", "timestamp": null, "begin": null, "end": null, "altitudeMode": null, "tessellate": -1, "extrude": 0, "visibility": -1, "drawOrder": null, "icon": null, "COL5DBA37F9C3FEDAED": "27.0", "COL5DBA37F9C3B37C95": "113/55/13", "COL5DBA37F9C3B5E237": "Dengkil", "COL5DBA37F9C355D61B": "SRA Sungai Buah", "COL5DBA37F9C3F9FB4F": "2.879821049", "COL5DBA37F9C3D1A0B3": "101.7644496" }, "geometry": { "type": "Point", "coordinates": [ 101.7644496, 2.879821049, 0.0 ] } },
{ "type": "Feature", "properties": { "Name": "RTB Datok Harun", "description": "No.: 28<br>Kod Pusat Mengundi: 113/55/14<br>Nama DUN: Dengkil<br>Pusat Mengundi: SK Rancangan Tanah Belia Bukit Changgang<br>Latitude: 2.80516<br>Longitude: 101.65703", "timestamp": null, "begin": null, "end": null, "altitudeMode": null, "tessellate": -1, "extrude": 0, "visibility": -1, "drawOrder": null, "icon": null, "COL5DBA37F9C3FEDAED": "28.0", "COL5DBA37F9C3B37C95": "113/55/14", "COL5DBA37F9C3B5E237": "Dengkil", "COL5DBA37F9C355D61B": "SK Rancangan Tanah Belia Bukit Changgang", "COL5DBA37F9C3F9FB4F": "2.80516", "COL5DBA37F9C3D1A0B3": "101.65703" }, "geometry": { "type": "Point", "coordinates": [ 101.65703, 2.80516, 0.0 ] } },
{ "type": "Feature", "properties": { "Name": "Ladang Ampar Tenang", "description": "No.: 29<br>Kod Pusat Mengundi: 113/55/15<br>Nama DUN: Dengkil<br>Pusat Mengundi: SJK(T) Ampar Tenang<br>Latitude: 2.847072<br>Longitude: 101.701569", "timestamp": null, "begin": null, "end": null, "altitudeMode": null, "tessellate": -1, "extrude": 0, "visibility": -1, "drawOrder": null, "icon": null, "COL5DBA37F9C3FEDAED": "29.0", "COL5DBA37F9C3B37C95": "113/55/15", "COL5DBA37F9C3B5E237": "Dengkil", "COL5DBA37F9C355D61B": "SJK(T) Ampar Tenang", "COL5DBA37F9C3F9FB4F": "2.847072", "COL5DBA37F9C3D1A0B3": "101.701569" }, "geometry": { "type": "Point", "coordinates": [ 101.701569, 2.847072, 0.0 ] } },
{ "type": "Feature", "properties": { "Name": "Kampung Melot", "description": "No.: 30<br>Kod Pusat Mengundi: 113/55/16<br>Nama DUN: Dengkil<br>Pusat Mengundi: SK Sungai Melut (A) Dengkil<br>Latitude: 2.832661727<br>Longitude: 101.6853227", "timestamp": null, "begin": null, "end": null, "altitudeMode": null, "tessellate": -1, "extrude": 0, "visibility": -1, "drawOrder": null, "icon": null, "COL5DBA37F9C3FEDAED": "30.0", "COL5DBA37F9C3B37C95": "113/55/16", "COL5DBA37F9C3B5E237": "Dengkil", "COL5DBA37F9C355D61B": "SK Sungai Melut (A) Dengkil", "COL5DBA37F9C3F9FB4F": "2.832661727", "COL5DBA37F9C3D1A0B3": "101.6853227" }, "geometry": { "type": "Point", "coordinates": [ 101.6853227, 2.832661727, 0.0 ] } },
{ "type": "Feature", "properties": { "Name": "Bandar Putra Perdana", "description": "No.: 31<br>Kod Pusat Mengundi: 113/55/17<br>Nama DUN: Dengkil<br>Pusat Mengundi: SK Taman Putra Perdana<br>Latitude: 2.94068<br>Longitude: 101.62058", "timestamp": null, "begin": null, "end": null, "altitudeMode": null, "tessellate": -1, "extrude": 0, "visibility": -1, "drawOrder": null, "icon": null, "COL5DBA37F9C3FEDAED": "31.0", "COL5DBA37F9C3B37C95": "113/55/17", "COL5DBA37F9C3B5E237": "Dengkil", "COL5DBA37F9C355D61B": "SK Taman Putra Perdana", "COL5DBA37F9C3F9FB4F": "2.94068", "COL5DBA37F9C3D1A0B3": "101.62058" }, "geometry": { "type": "Point", "coordinates": [ 101.62058, 2.94068, 0.0 ] } },
{ "type": "Feature", "properties": { "Name": "Taman Permata Dengkil", "description": "No.: 32<br>Kod Pusat Mengundi: 113/55/18<br>Nama DUN: Dengkil<br>Pusat Mengundi: SJK(T) Taman Permata<br>Latitude: 2.86955<br>Longitude: 101.679672", "timestamp": null, "begin": null, "end": null, "altitudeMode": null, "tessellate": -1, "extrude": 0, "visibility": -1, "drawOrder": null, "icon": null, "COL5DBA37F9C3FEDAED": "32.0", "COL5DBA37F9C3B37C95": "113/55/18", "COL5DBA37F9C3B5E237": "Dengkil", "COL5DBA37F9C355D61B": "SJK(T) Taman Permata", "COL5DBA37F9C3F9FB4F": "2.86955", "COL5DBA37F9C3D1A0B3": "101.679672" }, "geometry": { "type": "Point", "coordinates": [ 101.679672, 2.86955, 0.0 ] } },
{ "type": "Feature", "properties": { "Name": "Desa Air Hitam", "description": "No.: 33<br>Kod Pusat Mengundi: 113/55/19<br>Nama DUN: Dengkil<br>Pusat Mengundi: SJK(C) Sin Ming Puchong<br>Latitude: 2.96588<br>Longitude: 101.61423", "timestamp": null, "begin": null, "end": null, "altitudeMode": null, "tessellate": -1, "extrude": 0, "visibility": -1, "drawOrder": null, "icon": null, "COL5DBA37F9C3FEDAED": "33.0", "COL5DBA37F9C3B37C95": "113/55/19", "COL5DBA37F9C3B5E237": "Dengkil", "COL5DBA37F9C355D61B": "SJK(C) Sin Ming Puchong", "COL5DBA37F9C3F9FB4F": "2.96588", "COL5DBA37F9C3D1A0B3": "101.61423" }, "geometry": { "type": "Point", "coordinates": [ 101.61423, 2.96588, 0.0 ] } },
{ "type": "Feature", "properties": { "Name": "Cyberjaya", "description": "No.: 34<br>Kod Pusat Mengundi: 113/55/20<br>Nama DUN: Dengkil<br>Pusat Mengundi: SK Cyberjaya 1<br>Latitude: 2.919556<br>Longitude: 101.638472", "timestamp": null, "begin": null, "end": null, "altitudeMode": null, "tessellate": -1, "extrude": 0, "visibility": -1, "drawOrder": null, "icon": null, "COL5DBA37F9C3FEDAED": "34.0", "COL5DBA37F9C3B37C95": "113/55/20", "COL5DBA37F9C3B5E237": "Dengkil", "COL5DBA37F9C355D61B": "SK Cyberjaya 1", "COL5DBA37F9C3F9FB4F": "2.919556", "COL5DBA37F9C3D1A0B3": "101.638472" }, "geometry": { "type": "Point", "coordinates": [ 101.638472, 2.919556, 0.0 ] } },
{ "type": "Feature", "properties": { "Name": "Selangor Dredging", "description": "No.: 35<br>Kod Pusat Mengundi: 113/55/21<br>Nama DUN: Dengkil<br>Pusat Mengundi: Balai Raya Kampung Selangor Dredging<br>Latitude: 2.86263293<br>Longitude: 101.638034", "timestamp": null, "begin": null, "end": null, "altitudeMode": null, "tessellate": -1, "extrude": 0, "visibility": -1, "drawOrder": null, "icon": null, "COL5DBA37F9C3FEDAED": "35.0", "COL5DBA37F9C3B37C95": "113/55/21", "COL5DBA37F9C3B5E237": "Dengkil", "COL5DBA37F9C355D61B": "Balai Raya Kampung Selangor Dredging", "COL5DBA37F9C3F9FB4F": "2.86263293", "COL5DBA37F9C3D1A0B3": "101.638034" }, "geometry": { "type": "Point", "coordinates": [ 101.638034, 2.86263293, 0.0 ] } },
{ "type": "Feature", "properties": { "Name": "Desa Pinggiran Putra", "description": "No.: 36<br>Kod Pusat Mengundi: 113/55/22<br>Nama DUN: Dengkil<br>Pusat Mengundi: SK Desa Pinggiran Putra<br>Latitude: 2.899576<br>Longitude: 101.705659", "timestamp": null, "begin": null, "end": null, "altitudeMode": null, "tessellate": -1, "extrude": 0, "visibility": -1, "drawOrder": null, "icon": null, "COL5DBA37F9C3FEDAED": "36.0", "COL5DBA37F9C3B37C95": "113/55/22", "COL5DBA37F9C3B5E237": "Dengkil", "COL5DBA37F9C355D61B": "SK Desa Pinggiran Putra", "COL5DBA37F9C3F9FB4F": "2.899576", "COL5DBA37F9C3D1A0B3": "101.705659" }, "geometry": { "type": "Point", "coordinates": [ 101.705659, 2.899576, 0.0 ] } },
{ "type": "Feature", "properties": { "Name": "Kota Warisan", "description": "No.: 37<br>Kod Pusat Mengundi: 113/55/23<br>Nama DUN: Dengkil<br>Pusat Mengundi: SK Kota Warisan<br>Latitude: 2.825979<br>Longitude: 101.704832", "timestamp": null, "begin": null, "end": null, "altitudeMode": null, "tessellate": -1, "extrude": 0, "visibility": -1, "drawOrder": null, "icon": null, "COL5DBA37F9C3FEDAED": "37.0", "COL5DBA37F9C3B37C95": "113/55/23", "COL5DBA37F9C3B5E237": "Dengkil", "COL5DBA37F9C355D61B": "SK Kota Warisan", "COL5DBA37F9C3F9FB4F": "2.825979", "COL5DBA37F9C3D1A0B3": "101.704832" }, "geometry": { "type": "Point", "coordinates": [ 101.704832, 2.825979, 0.0 ] } },
{ "type": "Feature", "properties": { "Name": "Jenderam Hulu", "description": "No.: 38<br>Kod Pusat Mengundi: 113/56/01<br>Nama DUN: Sungai Pelek<br>Pusat Mengundi: SK Jenderam<br>Latitude: 2.869147<br>Longitude: 101.732144", "timestamp": null, "begin": null, "end": null, "altitudeMode": null, "tessellate": -1, "extrude": 0, "visibility": -1, "drawOrder": null, "icon": null, "COL5DBA37F9C3FEDAED": "38.0", "COL5DBA37F9C3B37C95": "113/56/01", "COL5DBA37F9C3B5E237": "Sungai Pelek", "COL5DBA37F9C355D61B": "SK Jenderam", "COL5DBA37F9C3F9FB4F": "2.869147", "COL5DBA37F9C3D1A0B3": "101.732144" }, "geometry": { "type": "Point", "coordinates": [ 101.732144, 2.869147, 0.0 ] } },
{ "type": "Feature", "properties": { "Name": "Salak", "description": "No.: 39<br>Kod Pusat Mengundi: 113/56/02<br>Nama DUN: Sungai Pelek<br>Pusat Mengundi: SK Salak<br>Latitude: 2.796565<br>Longitude: 101.746928", "timestamp": null, "begin": null, "end": null, "altitudeMode": null, "tessellate": -1, "extrude": 0, "visibility": -1, "drawOrder": null, "icon": null, "COL5DBA37F9C3FEDAED": "39.0", "COL5DBA37F9C3B37C95": "113/56/02", "COL5DBA37F9C3B5E237": "Sungai Pelek", "COL5DBA37F9C355D61B": "SK Salak", "COL5DBA37F9C3F9FB4F": "2.796565", "COL5DBA37F9C3D1A0B3": "101.746928" }, "geometry": { "type": "Point", "coordinates": [ 101.746928, 2.796565, 0.0 ] } },
{ "type": "Feature", "properties": { "Name": "Salak Jijan", "description": "No.: 40<br>Kod Pusat Mengundi: 113/56/03<br>Nama DUN: Sungai Pelek<br>Pusat Mengundi: SJK(C) Chio Chiao<br>Latitude: 2.78151<br>Longitude: 101.752071", "timestamp": null, "begin": null, "end": null, "altitudeMode": null, "tessellate": -1, "extrude": 0, "visibility": -1, "drawOrder": null, "icon": null, "COL5DBA37F9C3FEDAED": "40.0", "COL5DBA37F9C3B37C95": "113/56/03", "COL5DBA37F9C3B5E237": "Sungai Pelek", "COL5DBA37F9C355D61B": "SJK(C) Chio Chiao", "COL5DBA37F9C3F9FB4F": "2.78151", "COL5DBA37F9C3D1A0B3": "101.752071" }, "geometry": { "type": "Point", "coordinates": [ 101.752071, 2.78151, 0.0 ] } },
{ "type": "Feature", "properties": { "Name": "Lothian Timur", "description": "No.: 41<br>Kod Pusat Mengundi: 113/56/04<br>Nama DUN: Sungai Pelek<br>Pusat Mengundi: SJK(T) Ladang Bute<br>Latitude: 2.756533<br>Longitude: 101.743473", "timestamp": null, "begin": null, "end": null, "altitudeMode": null, "tessellate": -1, "extrude": 0, "visibility": -1, "drawOrder": null, "icon": null, "COL5DBA37F9C3FEDAED": "41.0", "COL5DBA37F9C3B37C95": "113/56/04", "COL5DBA37F9C3B5E237": "Sungai Pelek", "COL5DBA37F9C355D61B": "SJK(T) Ladang Bute", "COL5DBA37F9C3F9FB4F": "2.756533", "COL5DBA37F9C3D1A0B3": "101.743473" }, "geometry": { "type": "Point", "coordinates": [ 101.743473, 2.756533, 0.0 ] } },
{ "type": "Feature", "properties": { "Name": "Sepang Utara", "description": "No.: 42<br>Kod Pusat Mengundi: 113/56/05<br>Nama DUN: Sungai Pelek<br>Pusat Mengundi: SJK(C) Sepang<br>Latitude: 2.689203<br>Longitude: 101.749171", "timestamp": null, "begin": null, "end": null, "altitudeMode": null, "tessellate": -1, "extrude": 0, "visibility": -1, "drawOrder": null, "icon": null, "COL5DBA37F9C3FEDAED": "42.0", "COL5DBA37F9C3B37C95": "113/56/05", "COL5DBA37F9C3B5E237": "Sungai Pelek", "COL5DBA37F9C355D61B": "SJK(C) Sepang", "COL5DBA37F9C3F9FB4F": "2.689203", "COL5DBA37F9C3D1A0B3": "101.749171" }, "geometry": { "type": "Point", "coordinates": [ 101.749171, 2.689203, 0.0 ] } },
{ "type": "Feature", "properties": { "Name": "Sepang Selatan", "description": "No.: 43<br>Kod Pusat Mengundi: 113/56/06<br>Nama DUN: Sungai Pelek<br>Pusat Mengundi: SJK(T) Sepang<br>Latitude: 2.695225<br>Longitude: 101.750325", "timestamp": null, "begin": null, "end": null, "altitudeMode": null, "tessellate": -1, "extrude": 0, "visibility": -1, "drawOrder": null, "icon": null, "COL5DBA37F9C3FEDAED": "43.0", "COL5DBA37F9C3B37C95": "113/56/06", "COL5DBA37F9C3B5E237": "Sungai Pelek", "COL5DBA37F9C355D61B": "SJK(T) Sepang", "COL5DBA37F9C3F9FB4F": "2.695225", "COL5DBA37F9C3D1A0B3": "101.750325" }, "geometry": { "type": "Point", "coordinates": [ 101.750325, 2.695225, 0.0 ] } },
{ "type": "Feature", "properties": { "Name": "Hulu Cucuh", "description": "No.: 44<br>Kod Pusat Mengundi: 113/56/07<br>Nama DUN: Sungai Pelek<br>Pusat Mengundi: Dewan Orang Ramai Kampung Ulu Chucoh<br>Latitude: 2.690349038<br>Longitude: 101.6853638", "timestamp": null, "begin": null, "end": null, "altitudeMode": null, "tessellate": -1, "extrude": 0, "visibility": -1, "drawOrder": null, "icon": null, "COL5DBA37F9C3FEDAED": "44.0", "COL5DBA37F9C3B37C95": "113/56/07", "COL5DBA37F9C3B5E237": "Sungai Pelek", "COL5DBA37F9C355D61B": "Dewan Orang Ramai Kampung Ulu Chucoh", "COL5DBA37F9C3F9FB4F": "2.690349038", "COL5DBA37F9C3D1A0B3": "101.6853638" }, "geometry": { "type": "Point", "coordinates": [ 101.6853638, 2.690349038, 0.0 ] } },
{ "type": "Feature", "properties": { "Name": "Bagan Lalang", "description": "No.: 45<br>Kod Pusat Mengundi: 113/56/08<br>Nama DUN: Sungai Pelek<br>Pusat Mengundi: SMK Pantai Sepang Putra<br>Latitude: 2.621585<br>Longitude: 101.712789", "timestamp": null, "begin": null, "end": null, "altitudeMode": null, "tessellate": -1, "extrude": 0, "visibility": -1, "drawOrder": null, "icon": null, "COL5DBA37F9C3FEDAED": "45.0", "COL5DBA37F9C3B37C95": "113/56/08", "COL5DBA37F9C3B5E237": "Sungai Pelek", "COL5DBA37F9C355D61B": "SMK Pantai Sepang Putra", "COL5DBA37F9C3F9FB4F": "2.621585", "COL5DBA37F9C3D1A0B3": "101.712789" }, "geometry": { "type": "Point", "coordinates": [ 101.712789, 2.621585, 0.0 ] } },
{ "type": "Feature", "properties": { "Name": "Sungai Pelek Tiga", "description": "No.: 46<br>Kod Pusat Mengundi: 113/56/09<br>Nama DUN: Sungai Pelek<br>Pusat Mengundi: SMK Sungai Pelek<br>Latitude: 2.639863<br>Longitude: 101.710219", "timestamp": null, "begin": null, "end": null, "altitudeMode": null, "tessellate": -1, "extrude": 0, "visibility": -1, "drawOrder": null, "icon": null, "COL5DBA37F9C3FEDAED": "46.0", "COL5DBA37F9C3B37C95": "113/56/09", "COL5DBA37F9C3B5E237": "Sungai Pelek", "COL5DBA37F9C355D61B": "SMK Sungai Pelek", "COL5DBA37F9C3F9FB4F": "2.639863", "COL5DBA37F9C3D1A0B3": "101.710219" }, "geometry": { "type": "Point", "coordinates": [ 101.710219, 2.639863, 0.0 ] } },
{ "type": "Feature", "properties": { "Name": "Sungai Pelek Dua", "description": "No.: 47<br>Kod Pusat Mengundi: 113/56/10<br>Nama DUN: Sungai Pelek<br>Pusat Mengundi: SJK(C) Wah Lian<br>Latitude: 2.642554<br>Longitude: 101.714027", "timestamp": null, "begin": null, "end": null, "altitudeMode": null, "tessellate": -1, "extrude": 0, "visibility": -1, "drawOrder": null, "icon": null, "COL5DBA37F9C3FEDAED": "47.0", "COL5DBA37F9C3B37C95": "113/56/10", "COL5DBA37F9C3B5E237": "Sungai Pelek", "COL5DBA37F9C355D61B": "SJK(C) Wah Lian", "COL5DBA37F9C3F9FB4F": "2.642554", "COL5DBA37F9C3D1A0B3": "101.714027" }, "geometry": { "type": "Point", "coordinates": [ 101.714027, 2.642554, 0.0 ] } },
{ "type": "Feature", "properties": { "Name": "Sungai Pelek Empat", "description": "No.: 48<br>Kod Pusat Mengundi: 113/56/11<br>Nama DUN: Sungai Pelek<br>Pusat Mengundi: SK Sungai Pelek<br>Latitude: 2.646786<br>Longitude: 101.721419", "timestamp": null, "begin": null, "end": null, "altitudeMode": null, "tessellate": -1, "extrude": 0, "visibility": -1, "drawOrder": null, "icon": null, "COL5DBA37F9C3FEDAED": "48.0", "COL5DBA37F9C3B37C95": "113/56/11", "COL5DBA37F9C3B5E237": "Sungai Pelek", "COL5DBA37F9C355D61B": "SK Sungai Pelek", "COL5DBA37F9C3F9FB4F": "2.646786", "COL5DBA37F9C3D1A0B3": "101.721419" }, "geometry": { "type": "Point", "coordinates": [ 101.721419, 2.646786, 0.0 ] } },
{ "type": "Feature", "properties": { "Name": "Bandar Baru Salak Tinggi", "description": "No.: 49<br>Kod Pusat Mengundi: 113/56/12<br>Nama DUN: Sungai Pelek<br>Pusat Mengundi: SK Bandar Baru Salak Tinggi<br>Latitude: 2.806795<br>Longitude: 101.740554", "timestamp": null, "begin": null, "end": null, "altitudeMode": null, "tessellate": -1, "extrude": 0, "visibility": -1, "drawOrder": null, "icon": null, "COL5DBA37F9C3FEDAED": "49.0", "COL5DBA37F9C3B37C95": "113/56/12", "COL5DBA37F9C3B5E237": "Sungai Pelek", "COL5DBA37F9C355D61B": "SK Bandar Baru Salak Tinggi", "COL5DBA37F9C3F9FB4F": "2.806795", "COL5DBA37F9C3D1A0B3": "101.740554" }, "geometry": { "type": "Point", "coordinates": [ 101.740554, 2.806795, 0.0 ] } },
{ "type": "Feature", "properties": { "Name": "Taman Seroja", "description": "No.: 50<br>Kod Pusat Mengundi: 113/56/13<br>Nama DUN: Sungai Pelek<br>Pusat Mengundi: SK Taman Seroja<br>Latitude: 2.829181<br>Longitude: 101.728153", "timestamp": null, "begin": null, "end": null, "altitudeMode": null, "tessellate": -1, "extrude": 0, "visibility": -1, "drawOrder": null, "icon": null, "COL5DBA37F9C3FEDAED": "50.0", "COL5DBA37F9C3B37C95": "113/56/13", "COL5DBA37F9C3B5E237": "Sungai Pelek", "COL5DBA37F9C355D61B": "SK Taman Seroja", "COL5DBA37F9C3F9FB4F": "2.829181", "COL5DBA37F9C3D1A0B3": "101.728153" }, "geometry": { "type": "Point", "coordinates": [ 101.728153, 2.829181, 0.0 ] } },
{ "type": "Feature", "properties": { "Name": "Taman Mawar", "description": "No.: 51<br>Kod Pusat Mengundi: 113/56/14<br>Nama DUN: Sungai Pelek<br>Pusat Mengundi: SK KLIA<br>Latitude: 2.831949<br>Longitude: 101.7315", "timestamp": null, "begin": null, "end": null, "altitudeMode": null, "tessellate": -1, "extrude": 0, "visibility": -1, "drawOrder": null, "icon": null, "COL5DBA37F9C3FEDAED": "51.0", "COL5DBA37F9C3B37C95": "113/56/14", "COL5DBA37F9C3B5E237": "Sungai Pelek", "COL5DBA37F9C355D61B": "SK KLIA", "COL5DBA37F9C3F9FB4F": "2.831949", "COL5DBA37F9C3D1A0B3": "101.7315" }, "geometry": { "type": "Point", "coordinates": [ 101.7315, 2.831949, 0.0 ] } }
]
}
